STARLINK-4079           
1 52666U 22053L   24358.14223486  .00000215  00000+0  31605-4 0  9995
2 52666  53.2197 335.9188 0001402  74.7940 285.3207 15.08841500144399
STARLINK-4076           
1 52667U 22053M   24358.16802806 -.00000360  00000+0 -45531-5 0  9994
2 52667  53.2184 336.1845 0001422 107.5764 252.5384 15.08843042144395
STARLINK-4067           
1 52668U 22053N   24358.17538806  .00000585  00000+0  54829-4 0  9998
2 52668  53.2188 336.1533 0001543 112.2290 247.8866 15.08842883144399
STARLINK-3972           
1 52669U 22053P   24358.15699050  .00001933  00000+0  13951-3 0  9994
2 52669  53.2169 336.2344 0001542  93.3414 266.7755 15.08841924144387
STARLINK-4075           
1 52670U 22053Q   24358.17907851  .00000383  00000+0  42174-4 0  9997
2 52670  53.2194 336.2032 0001625 106.4879 253.6292 15.08839397143969
STARLINK-4071           
1 52671U 22053R   24358.21955185  .00000842  00000+0  70982-4 0  9994
2 52671  53.2175 335.9549 0001612  82.8307 277.2868 15.08842193143977
STARLINK-4073           
1 52672U 22053S   24358.16433989  .00000293  00000+0  36520-4 0  9992
2 52672  53.2197 336.2026 0001719  93.9127 266.2061 15.08851513143965
STARLINK-3976           
1 52673U 22053T   24358.14595397  .00000974  00000+0  79311-4 0  9994
2 52673  53.2193 336.2854 0001549  87.4106 272.7063 15.08838732143969
STARLINK-3936           
1 52674U 22053U   24357.36578476 -.00002013  00000+0 -10840-3 0  9996
2 52674  53.2182 339.7859 0001614  97.4480 262.6695 15.08846010144272
STARLINK-3934           
1 52675U 22053V   24358.14318379 -.00000561  00000+0 -17145-4 0  9990
2 52675  53.2177 326.2958 0001732 110.6075 249.5103 15.08844451144081
STARLINK-4006           
1 52676U 22053W   24357.22227468  .00000362  00000+0  40814-4 0  9993
2 52676  53.2200 340.4320 0001844  67.7727 292.3460 15.08841539144244
STARLINK-4028           
1 52677U 22053X   24358.13584006  .00010962  00000+0  70636-3 0  9990
2 52677  53.2188 326.3312 0000600  98.1276 261.9784 15.08808918144087
STARLINK-4074           
1 52678U 22053Y   24358.15424270  .00001813  00000+0  13195-3 0  9991
2 52678  53.2188 326.3569 0001544 104.3488 255.7676 15.08844845144085
STARLINK-4031           
1 52679U 22053Z   24357.19742814  .00000623  00000+0  57219-4 0  9996
2 52679  53.2185 330.5402 0001718  93.9874 266.1315 15.08843936144335
STARLINK-3774           
1 52680U 22053AA  24357.32252019  .00001328  00000+0  10153-3 0  9994
2 52680  53.2185 329.7512 0001776 101.9893 258.1299 15.08843609144377
STARLINK-4068           
1 52681U 22053AB  24358.12110987  .00001329  00000+0  10159-3 0  9998
2 52681  53.2173 326.3986 0001364  92.6177 267.4972 15.08843140144086
STARLINK-4017           
1 52682U 22053AC  24357.20479138  .00000720  00000+0  63301-4 0  9995
2 52682  53.2195 330.5121 0001779  78.9864 281.1328 15.08844962144350
STARLINK-4014           
1 52684U 22053AE  24358.12847117  .00000471  00000+0  47678-4 0  9997
2 52684  53.2178 326.3628 0001472  88.5880 271.5281 15.08837500144095
STARLINK-4029           
1 52685U 22053AF  24358.23886968  .00002567  00000+0  17929-3 0  9990
2 52685  53.2175 325.8688 0001677 101.0119 259.1062 15.08845757144100
STARLINK-4005           
1 52686U 22053AG  24357.34929814 -.00000459  00000+0 -10717-4 0  9999
2 52686  53.2178 330.1398 0001480  97.9711 262.1449 15.08843539144349
STARLINK-3981           
1 52687U 22053AH  24358.16895012 -.00000065  00000+0  13988-4 0  9998
2 52687  53.2191 326.1810 0001561 101.4094 258.7074 15.08846227144098
STARLINK-4032           
1 52688U 22053AJ  24358.23149247  .00000793  00000+0  67900-4 0  9999
2 52688  53.2191 325.7865 0001570  87.6716 272.4456 15.08851027144103
STARLINK-4078           
1 52689U 22053AK  24357.16431088 -.00000888  00000+0 -37670-4 0  9996
2 52689  53.2188 330.6921 0001697  98.7753 261.3432 15.08839882144344
STARLINK-4035           
1 52690U 22053AL  24358.17631331  .00002932  00000+0  20228-3 0  9993
2 52690  53.2202 326.1525 0001814  72.5908 287.5283 15.08828123144098
STARLINK-3945           
1 52691U 22053AM  24357.33025458  .01388110  15286-2  92451-3 0  9996
2 52691  53.2221 312.8814 0001660 228.7235 286.7776 16.16718169144209
STARLINK-3993           
1 52692U 22053AN  24358.13947341  .00002550  00000+0  17820-3 0  9992
2 52692  53.2188 326.0427 0002078 125.7077 234.4109 15.08849609144094
STARLINK-3946           
1 52693U 22053AP  24358.14687328  .00000252  00000+0  33952-4 0  9992
2 52693  53.2189 326.2791 0001575 115.3524 244.7631 15.08833891144095
STARLINK-4072           
1 52694U 22053AQ  24357.36671137  .00000988  00000+0  80174-4 0  9991
2 52694  53.2196 329.7848 0001561  92.0221 268.0950 15.08842319144374
STARLINK-4041           
1 52695U 22053AR  24358.13350582  .00002750  00000+0  19079-3 0  9990
2 52695  53.2191 331.1414 0001672  89.1442 270.9742 15.08845246144026
STARLINK-4018           
1 52697U 22053AT  24357.23288583  .00000031  00000+0  20038-4 0  9991
2 52697  53.2196 335.3842 0001528 104.4285 255.6877 15.08839590144293
STARLINK-4030           
1 52698U 22053AU  24358.17032587 -.00001143  00000+0 -53740-4 0  9990
2 52698  53.2185 331.1637 0001632 105.1193 254.9979 15.08838083144022
STARLINK-3987           
1 52699U 22053AV  24358.14917263  .00001165  00000+0  91259-4 0  9990
2 52699  53.2195 321.3021 0001620 103.9350 256.1822 15.08843881144157
STARLINK-4034           
1 52700U 22053AW  24357.26868678  .00000619  00000+0  56954-4 0  9996
2 52700  53.2196 334.8686 0001514  84.5886 275.5279 15.08843474144303
STARLINK-4003           
1 52701U 22053AX  24357.91667824  .01240666  00000+0  37597-2 0  9998
2 52701  53.2161 304.6237 0000825 118.7194 154.5831 15.89076533  5847
STARLINK-4033           
1 52702U 22053AY  24357.89433789  .00001519  00000+0  11350-3 0  9998
2 52702  53.2183 332.4416 0001500 105.0040 255.1118 15.08835693144391
STARLINK-4020           
1 52703U 22053AZ  24357.32347274 -.00002787  00000+0 -15708-3 0  9991
2 52703  53.2184 319.9883 0001661 112.6749 247.4419 15.08839511143254
STARLINK-3999           
1 52704U 22053BA  24358.13305571  .00004519  00000+0  30167-3 0  9995
2 52704  53.2177 316.3425 0001570  94.2341 265.8831 15.08858696144227
STARLINK-3844           
1 52705U 22053BB  24358.12204648  .00012291  00000+0  79013-3 0  9997
2 52705  53.2190 316.3943 0001464 114.1739 245.9407 15.08787256144224
STARLINK-3970           
1 52706U 22053BC  24358.12572186 -.00001048  00000+0 -47801-4 0  9994
2 52706  53.2188 316.3743 0001488 111.1995 248.9157 15.08830501144224
STARLINK-4007           
1 52707U 22053BD  24358.16985338  .00001431  00000+0  10796-3 0  9992
2 52707  53.2182 316.0648 0001633  83.4695 276.6483 15.08845431144240
STARLINK-3962           
1 52708U 22053BE  24358.14778696  .00003387  00000+0  23074-3 0  9993
2 52708  53.2186 316.2699 0001828  98.9853 261.1346 15.08846607144238
STARLINK-4091           
1 52830U 22062A   24358.02821459 -.00002766  00000+0 -15570-3 0  9996
2 52830  53.2164 217.0059 0001508 103.3136 256.8024 15.08850424139610
STARLINK-4089           
1 52831U 22062B   24358.02083450 -.00000943  00000+0 -41169-4 0  9997
2 52831  53.2169 216.8510 0001416 108.7822 251.3324 15.08836722139612
STARLINK-4083           
1 52832U 22062C   24358.01716286 -.00000940  00000+0 -40974-4 0  9997
2 52832  53.2164 216.8642 0001613  95.2962 264.8214 15.08833281139599
STARLINK-4086           
1 52833U 22062D   24357.88099029  .00000691  00000+0  61488-4 0  9995
2 52833  53.2160 217.4772 0001480  86.0734 274.0427 15.08842915139081
STARLINK-4108           
1 52834U 22062E   24358.00610848  .00000532  00000+0  51519-4 0  9997
2 52834  53.2171 216.9148 0001593  83.9890 276.1283 15.08840774139106
STARLINK-4080           
1 52835U 22062F   24357.86995112  .00001013  00000+0  81736-4 0  9990
2 52835  53.2169 217.5262 0001431  89.0557 271.0599 15.08841589139082
STARLINK-4043           
1 52836U 22062G   24357.89670526 -.00001263  00000+0 -61237-4 0  9996
2 52836  53.2165 217.7221 0001353 105.8225 254.2917 15.08850790139089
STARLINK-4036           
1 52837U 22062H   24358.05761659  .00001890  00000+0  13677-3 0  9992
2 52837  53.2153 216.6795 0001388  90.2978 269.8173 15.08853807139113
STARLINK-4092           
1 52838U 22062J   24357.99506566 -.00000448  00000+0 -10041-4 0  9992
2 52838  53.2154 216.9522 0001391  93.7686 266.3465 15.08844467139594
STARLINK-4048           
1 52839U 22062K   24357.91778893 -.00000335  00000+0 -29572-5 0  9994
2 52839  53.2161 217.3084 0001422 101.4414 258.6738 15.08844267139586
STARLINK-4049           
1 52840U 22062L   24357.86628275  .00000919  00000+0  75842-4 0  9994
2 52840  53.2168 217.6563 0001505  96.1303 263.9861 15.08845494139083
STARLINK-4065           
1 52841U 22062M   24357.84051086  .00000278  00000+0  35551-4 0  9994
2 52841  53.2160 217.6554 0001477 100.8430 259.2728 15.08843164139080
STARLINK-4046           
1 52842U 22062N   24358.05394199  .00001406  00000+0  10640-3 0  9999
2 52842  53.2165 216.6202 0001514 104.3373 255.7787 15.08839446139604
STARLINK-4188           
1 52843U 22062P   24358.03186887 -.00000520  00000+0 -14584-4 0  9991
2 52843  53.2166 216.7968 0001524 101.9349 258.1814 15.08843161139600
STARLINK-4208           
1 52844U 22062Q   24357.84788451  .00000906  00000+0  74991-4 0  9999
2 52844  53.2171 217.6207 0001465  99.9836 260.1322 15.08835058139089
STARLINK-4168           
1 52845U 22062R   24357.90307753  .00000000  00000+0  18098-4 0  9990
2 52845  53.2169 217.4398 0001637  91.1498 268.9682 15.08843887139584
STARLINK-4212           
1 52846U 22062S   24358.03650169 -.00000298  00000+0 -62440-6 0  9991
2 52846  53.2166 216.7886 0001445  79.6602 280.4553 15.08850601139602
STARLINK-4206           
1 52847U 22062T   24358.02450790  .00000080  00000+0  23144-4 0  9992
2 52847  53.2160 216.8312 0001373  90.5168 269.5982 15.08840505139607
